NORAD_CAT_ID,OBJECT_NAME,OBJECT_TYPE,EPOCH,MEAN_MOTION,ECCENTRICITY,INCLINATION,RA_OF_ASC_NODE,ARG_OF_PERICENTER,MEAN_ANOMALY,BSTAR,MEAN_MOTION_DOT,MEAN_MOTION_DDOT,TLE_LINE0,TLE_LINE1,TLE_LINE2,SEMIMAJOR_AXIS,PERIOD,APOGEE,PERIGEE,DECAYED
52568.0,STARLINK-3930,PAYLOAD,2023-12-26 14:30:18,15.08838747,0.0001333,53.2161,128.7982,79.6277,280.4865,-2.3925e-05,-6.69e-06,0.0,0 STARLINK-3930,1 52568U 22051AM  23360.60437836 -.00000669  00000-0 -23925-4 0  9995,2 52568  53.2161 128.7982 0001333  79.6277 280.4865 15.08838747 90194,6917.884,95.438,540.671,538.827,0.0
52568.0,STARLINK-3930,PAYLOAD,2023-12-26 17:41:04,15.08837818,0.0001421,53.2171,128.2064,93.6261,266.4894,3.8791e-05,3.29e-06,0.0,0 STARLINK-3930,1 52568U 22051AM  23360.73685703  .00000329  00000-0  38791-4 0  9995,2 52568  53.2171 128.2064 0001421  93.6261 266.4894 15.08837818 90282,6917.887,95.438,540.735,538.769,0.0
52568.0,STARLINK-3930,PAYLOAD,2023-12-27 14:21:05,15.08842082,0.0001539,53.2169,124.3409,111.8128,248.3028,6.0359e-05,6.73e-06,0.0,0 STARLINK-3930,1 52568U 22051AM  23361.59797527  .00000673  00000-0  60359-4 0  9995,2 52568  53.2169 124.3409 0001539 111.8128 248.3028 15.08842082 90348,6917.874,95.437,540.804,538.674,0.0
52568.0,STARLINK-3930,PAYLOAD,2023-12-27 15:56:27,15.08846564,0.0001281,53.2165,124.0407,83.2361,276.8777,0.00012588,1.716e-05,0.0,0 STARLINK-3930,1 52568U 22051AM  23361.66421233  .00001716  00000-0  12588-3 0  9990,2 52568  53.2165 124.0407 0001281  83.2361 276.8777 15.08846564 90351,6917.86,95.437,540.612,538.839,0.0
52568.0,STARLINK-3930,PAYLOAD,2023-12-28 14:11:52,15.08839269,0.0001418,53.2168,119.8797,86.813,273.3024,5.8496e-05,6.43e-06,0.0,0 STARLINK-3930,1 52568U 22051AM  23362.59157970  .00000643  00000-0  58496-4 0  9994,2 52568  53.2168 119.8797 0001418  86.8130 273.3024 15.08839269 90499,6917.883,95.438,540.729,538.767,0.0
52568.0,STARLINK-3930,PAYLOAD,2023-12-28 15:47:15,15.08840796,0.0001533,53.2175,119.5835,79.5989,280.5176,9.3697e-05,1.204e-05,0.0,0 STARLINK-3930,1 52568U 22051AM  23362.65781869  .00001204  00000-0  93697-4 0  9997,2 52568  53.2175 119.5835 0001533  79.5989 280.5176 15.08840796 90570,6917.878,95.438,540.803,538.682,0.0
52568.0,STARLINK-3930,PAYLOAD,2023-12-29 07:41:07,15.08837973,0.0001223,53.2169,116.6101,79.2383,280.8747,1.9371e-05,2e-07,0.0,0 STARLINK-3930,1 52568U 22051AM  23363.32022274  .00000020  00000-0  19371-4 0  9992,2 52568  53.2169 116.6101 0001223  79.2383 280.8747 15.08837973 90679,6917.887,95.438,540.598,538.906,0.0
52568.0,STARLINK-3930,PAYLOAD,2023-12-29 14:02:39,15.08840938,0.0001459,53.2161,115.42,75.8814,284.2341,2.7144e-05,1.44e-06,0.0,0 STARLINK-3930,1 52568U 22051AM  23363.58518108  .00000144  00000-0  27144-4 0  9990,2 52568  53.2161 115.4200 0001459  75.8814 284.2341 15.08840938 90640,6917.878,95.437,540.752,538.733,0.0
52568.0,STARLINK-3930,PAYLOAD,2023-12-30 12:18:03,15.08845182,0.0001331,53.2166,111.2573,97.5237,262.5906,4.9606e-05,5.02e-06,0.0,0 STARLINK-3930,1 52568U 22051AM  23364.51253675  .00000502  00000-0  49606-4 0  9994,2 52568  53.2166 111.2573 0001331  97.5237 262.5906 15.08845182 90856,6917.865,95.437,540.65,538.809,0.0
52568.0,STARLINK-3930,PAYLOAD,2023-12-30 13:53:26,15.08848453,0.0001374,53.2167,110.9602,82.3719,277.7429,5.7657e-05,6.3e-06,0.0,0 STARLINK-3930,1 52568U 22051AM  23364.57877513  .00000630  00000-0  57657-4 0  9990,2 52568  53.2167 110.9602 0001374  82.3719 277.7429 15.08848453 90795,6917.855,95.437,540.67,538.769,0.0
52568.0,STARLINK-3930,PAYLOAD,2023-12-30 17:04:12,15.0884887,0.0001305,53.2163,110.364,92.6693,267.4448,0.00011162,1.489e-05,0.0,0 STARLINK-3930,1 52568U 22051AM  23364.71125210  .00001489  00000-0  11162-3 0  9999,2 52568  53.2163 110.3640 0001305  92.6693 267.4448 15.08848870 90819,6917.853,95.437,540.621,538.815,0.0
52568.0,STARLINK-3930,PAYLOAD,2023-12-31 12:08:50,15.08831121,0.0001513,53.2166,106.7887,118.9813,241.1331,0.00015166,2.126e-05,0.0,0 STARLINK-3930,1 52568U 22051AM  23365.50614220  .00002126  00000-0  15166-3 0  9998,2 52568  53.2166 106.7887 0001513 118.9813 241.1331 15.08831121 91004,6917.908,95.438,540.819,538.726,0.0
52568.0,STARLINK-3930,PAYLOAD,2023-12-31 13:44:13,15.08833211,0.0001504,53.2165,106.4933,113.6384,246.4767,8.6244e-05,1.085e-05,0.0,0 STARLINK-3930,1 52568U 22051AM  23365.57238330  .00001085  00000-0  86244-4 0  9998,2 52568  53.2165 106.4933 0001504 113.6384 246.4767 15.08833211 90942,6917.901,95.438,540.807,538.726,0.0
52568.0,STARLINK-3930,PAYLOAD,2024-01-01 11:59:37,15.08843514,0.0001327,53.217,102.3352,91.5332,268.5813,-6.7459e-06,-3.95e-06,0.0,0 STARLINK-3930,1 52568U 22051AM  24001.49974130 -.00000395  00000-0 -67459-5 0  9995,2 52568  53.2170 102.3352 0001327  91.5332 268.5813 15.08843514 91156,6917.87,95.437,540.653,538.817,0.0
52568.0,STARLINK-3930,PAYLOAD,2024-01-01 16:45:46,15.08846892,0.0001436,53.2172,101.4403,107.5027,252.6122,8.9626e-06,-1.45e-06,0.0,0 STARLINK-3930,1 52568U 22051AM  24001.69845737 -.00000145  00000-0  89626-5 0  9999,2 52568  53.2172 101.4403 0001436 107.5027 252.6122 15.08846892 91110,6917.859,95.437,540.718,538.731,0.0
52568.0,STARLINK-3930,PAYLOAD,2024-01-02 11:50:24,15.08840612,0.0001603,53.2176,97.873,110.2633,249.8532,8.9675e-05,1.139e-05,0.0,0 STARLINK-3930,1 52568U 22051AM  24002.49333993  .00001139  00000-0  89675-4 0  9990,2 52568  53.2176  97.8730 0001603 110.2633 249.8532 15.08840612 91235,6917.879,95.438,540.852,538.635,0.0
52568.0,STARLINK-3930,PAYLOAD,2024-01-03 11:41:12,15.08829292,0.0001644,53.2178,93.4143,108.3733,251.7438,4.7723e-05,4.71e-06,0.0,0 STARLINK-3930,1 52568U 22051AM  24003.48695078  .00000471  00000-0  47723-4 0  9991,2 52568  53.2178  93.4143 0001644 108.3733 251.7438 15.08829292 91453,6917.913,95.438,540.915,538.641,0.0
52568.0,STARLINK-3930,PAYLOAD,2024-01-03 13:16:35,15.08840348,0.0001402,53.2171,93.1173,86.0953,274.0199,-3.7498e-05,-8.85e-06,0.0,0 STARLINK-3930,1 52568U 22051AM  24003.55318812 -.00000885  00000-0 -37498-4 0  9996,2 52568  53.2171  93.1173 0001402  86.0953 274.0199 15.08840348 91394,6917.879,95.438,540.714,538.774,0.0
52568.0,STARLINK-3930,PAYLOAD,2024-01-04 11:31:58,15.08852976,0.0001631,53.2165,88.9541,84.2982,275.8196,-6.2261e-05,-1.279e-05,0.0,0 STARLINK-3930,1 52568U 22051AM  24004.48054178 -.00001279  00000-0 -62261-4 0  9995,2 52568  53.2165  88.9541 0001631  84.2982 275.8196 15.08852976 91604,6917.841,95.437,540.834,538.577,0.0
52568.0,STARLINK-3930,PAYLOAD,2024-01-04 13:07:22,15.08843876,0.0001499,53.217,88.658,74.3721,285.7436,0.00010664,1.41e-05,0.0,0 STARLINK-3930,1 52568U 22051AM  24004.54678306  .00001410  00000-0  10664-3 0  9991,2 52568  53.2170  88.6580 0001499  74.3721 285.7436 15.08843876 91542,6917.869,95.437,540.771,538.697,0.0
52568.0,STARLINK-3930,PAYLOAD,2024-01-05 11:22:46,15.08838255,0.0001398,53.2177,84.4908,93.9492,266.166,3.427e-05,2.57e-06,0.0,0 STARLINK-3930,1 52568U 22051AM  24005.47415025  .00000257  00000-0  34270-4 0  9999,2 52568  53.2177  84.4908 0001398  93.9492 266.1660 15.08838255 91757,6917.886,95.438,540.718,538.784,0.0
52568.0,STARLINK-3930,PAYLOAD,2024-01-05 14:33:32,15.08840314,0.0001415,53.2178,83.8956,96.8413,263.2741,4.334e-05,4.02e-06,0.0,0 STARLINK-3930,1 52568U 22051AM  24005.60662863  .00000402  00000-0  43340-4 0  9998,2 52568  53.2178  83.8956 0001415  96.8413 263.2741 15.08840314 91701,6917.879,95.438,540.723,538.766,0.0
52568.0,STARLINK-3930,PAYLOAD,2024-01-06 11:13:33,15.0884352,0.0001461,53.2163,80.0331,92.4671,267.6488,5.1979e-05,5.39e-06,0.0,0 STARLINK-3930,1 52568U 22051AM  24006.46774748  .00000539  00000-0  51979-4 0  9997,2 52568  53.2163  80.0331 0001461  92.4671 267.6488 15.08843520 91832,6917.87,95.437,540.745,538.724,0.0
52568.0,STARLINK-3930,PAYLOAD,2024-01-07 04:42:47,15.08842353,0.0001515,53.2165,76.7623,84.2556,275.8609,5.8713e-05,6.47e-06,0.0,0 STARLINK-3930,1 52568U 22051AM  24007.19638813  .00000647  00000-0  58713-4 0  9993,2 52568  53.2165  76.7623 0001515  84.2556 275.8609 15.08842353 92011,6917.873,95.437,540.786,538.69,0.0
52568.0,STARLINK-3930,PAYLOAD,2024-01-07 11:04:20,15.08844995,0.0001573,53.2168,75.5729,79.3042,280.8127,7.5195e-05,9.09e-06,0.0,0 STARLINK-3930,1 52568U 22051AM  24007.46134617  .00000909  00000-0  75195-4 0  9990,2 52568  53.2168  75.5729 0001573  79.3042 280.8127 15.08844995 91987,6917.865,95.437,540.818,538.642,0.0
52568.0,STARLINK-3930,PAYLOAD,2024-01-08 10:55:07,15.08842164,0.0001662,53.2175,71.1142,87.952,272.1663,3.9801e-05,3.45e-06,0.0,0 STARLINK-3930,1 52568U 22051AM  24008.45494793  .00000345  00000-0  39801-4 0  9992,2 52568  53.2175  71.1142 0001662  87.9520 272.1663 15.08842164 92202,6917.874,95.437,540.889,538.589,0.0
52568.0,STARLINK-3930,PAYLOAD,2024-01-09 04:24:22,15.08833392,0.0001766,53.2184,67.8466,92.1135,268.0059,3.1252e-05,2.09e-06,0.0,0 STARLINK-3930,1 52568U 22051AM  24009.18359351  .00000209  00000-0  31252-4 0  9994,2 52568  53.2184  67.8466 0001766  92.1135 268.0059 15.08833392 92316,6917.901,95.438,540.987,538.544,0.0
52568.0,STARLINK-3930,PAYLOAD,2024-01-09 09:10:31,15.0883886,0.0001751,53.2182,66.954,87.0898,273.0295,1.3509e-05,-7.3e-07,0.0,0 STARLINK-3930,1 52568U 22051AM  24009.38231144 -.00000073  00000-0  13509-4 0  9990,2 52568  53.2182  66.9540 0001751  87.0898 273.0295 15.08838860 92278,6917.884,95.438,540.96,538.538,0.0
52568.0,STARLINK-3930,PAYLOAD,2024-01-10 09:01:18,15.08842422,0.0001635,53.2178,62.4927,90.6968,269.4212,-4.7282e-05,-1.041e-05,0.0,0 STARLINK-3930,1 52568U 22051AM  24010.37591218 -.00001041  00000-0 -47282-4 0  9994,2 52568  53.2178  62.4927 0001635  90.6968 269.4212 15.08842422 92493,6917.873,95.437,540.869,538.607,0.0
52568.0,STARLINK-3930,PAYLOAD,2024-01-11 10:27:28,15.08853099,0.0001283,53.2169,57.7238,95.1793,264.9346,-6.1315e-05,-1.264e-05,0.0,0 STARLINK-3930,1 52568U 22051AM  24011.43574520 -.00001264  00000-0 -61315-4 0  9999,2 52568  53.2169  57.7238 0001283  95.1793 264.9346 15.08853099 92658,6917.84,95.437,540.593,538.818,0.0
